[{"OBJECT_NAME":"FLOCK 4G-27","OBJECT_ID":"2025-009AJ","EPOCH":"2026-03-09T18:05:51.175392","MEAN_MOTION":15.27199247,"ECCENTRICITY":7.564e-5,"INCLINATION":97.3976,"RA_OF_ASC_NODE":150.8631,"ARG_OF_PERICENTER":322.4974,"MEAN_ANOMALY":37.6212,"EPHEMERIS_TYPE":0,"CLASSIFICATION_TYPE":"U","NORAD_CAT_ID":62641,"ELEMENT_SET_NO":999,"REV_AT_EPOCH":6371,"BSTAR":0.00047455305,"MEAN_MOTION_DOT":0.00012587,"MEAN_MOTION_DDOT":0},{"OBJECT_NAME":"STARLINK-33925","OBJECT_ID":"2025-091U","EPOCH":"2026-03-09T22:41:15.190944","MEAN_MOTION":15.27602119,"ECCENTRICITY":0.00020427,"INCLINATION":43.0068,"RA_OF_ASC_NODE":50.8764,"ARG_OF_PERICENTER":273.7562,"MEAN_ANOMALY":86.3056,"EPHEMERIS_TYPE":0,"CLASSIFICATION_TYPE":"U","NORAD_CAT_ID":63793,"ELEMENT_SET_NO":999,"REV_AT_EPOCH":4905,"BSTAR":0.0013893248,"MEAN_MOTION_DOT":0.00038194,"MEAN_MOTION_DDOT":0}]
